<?xml version='1.0' encoding='utf-8'?>
<kml xmlns="http://www.opengis.net/kml/2.2"><Document><Placemark><name>Bangalore parcel</name><Polygon><outerBoundaryIs><LinearRing><coordinates>77.590,12.970,0 77.599,12.970,0 77.599,12.979,0 77.590,12.979,0 77.590,12.970,0</coordinates></LinearRing></outerBoundaryIs></Polygon></Placemark><Placemark><name>Bangalore road</name><LineString><coordinates>77.580,12.970,0 77.581,12.970,0</coordinates></LineString></Placemark><Placemark><name>Bangalore marker</name><Point><coordinates>77.590,12.970,0</coordinates></Point></Placemark></Document></kml>